{"type":"FeatureCollection","crs":{"type":"name","properties":{"name":"EPSG:4326"}},"features":[{"type":"Feature","id":210,"geometry":{"type":"Polygon","coordinates":[[[-95.3797152777182,40.0278675689801],[-95.3794444846428,40.0278372329917],[-95.3791153235544,40.0278336010112],[-95.3790059045217,40.0278000290123],[-95.3787382894509,40.0278063860297],[-95.378723399447,40.0278067460307],[-95.3780621592547,40.0276551920462],[-95.3777808361774,40.0276342130599],[-95.3775351371006,40.0275266820573],[-95.3774025640642,40.0275167060637],[-95.3770493779704,40.0275221290861],[-95.3766341848562,40.0274908851064],[-95.3764578488083,40.0274824091157],[-95.3763669157883,40.027524294128],[-95.3762029977482,40.0275601541439],[-95.376083785719,40.0275862331554],[-95.3748477763778,40.0274795832132],[-95.3742632602234,40.0274973072517],[-95.3742596842225,40.0274974152519],[-95.3738135391006,40.0274714212749],[-95.3732693439565,40.02748385631],[-95.3728825318502,40.027455292329],[-95.3728361248359,40.0274372113288],[-95.372735417805,40.0273979713285],[-95.3726065407695,40.0273875663347],[-95.3714059814515,40.0274149854123],[-95.3708745313107,40.0274271194466],[-95.3708170142955,40.0274284314503],[-95.3706418562612,40.0275494524807],[-95.3686134036474,40.0268528714906],[-95.364781289509,40.0257421105427],[-95.3634199241475,40.025763605629],[-95.3618583877158,40.0256237407013],[-95.360112820206,40.0252030697389],[-95.3591815219304,40.0249440247533],[-95.3572143103653,40.0245615438106],[-95.3553944078575,40.0243529788873],[-95.3545733616324,40.0242976279283],[-95.3532284152543,40.0241166009806],[-95.3528327401534,40.0241638420124],[-95.3517883818602,40.0240263210535],[-95.3506781625467,40.0238637710945],[-95.3460544182493,40.0232654552783],[-95.3454059590673,40.023181386304],[-95.343191909418,40.0226220133474],[-95.3413650618684,40.0220265923614],[-95.3397163323742,40.0215061753767],[-95.3395617482045,40.0202582461825],[-95.3392728598875,40.0179283578199],[-95.3368270628734,40.0144249663969],[-95.3358431632323,40.0107483618566],[-95.3350181556362,40.0070948163103],[-95.333168596771,40.0034869388338],[-95.3320725183291,40.0020368796636],[-95.3311652799727,40.0009286935378],[-95.3301977526194,40.0000070584461],[-95.322337749932,39.9942970579911],[-95.3179703125244,39.9919584308743],[-95.3179411915142,39.9919349868723],[-95.3179193780525,39.9874926111479],[-95.317898384608,39.9832158994504],[-95.3178826782755,39.9800158819285],[-95.3178705990199,39.977554868527],[-95.3178702480125,39.9774832975154],[-95.3178610328175,39.9756057112091],[-95.3178572247369,39.9748297620825],[-95.322168119893,39.9748680568271],[-95.3224377489654,39.9748704468112],[-95.3244619155082,39.9748883686912],[-95.3274330743049,39.9749146105152],[-95.3397227036001,39.9750223427867],[-95.3399185326525,39.9750228667749],[-95.3473463696393,39.9750424503271],[-95.3493287881695,39.9750475972076],[-95.350878642584,39.9750515971141],[-95.3586730236684,39.975071397644],[-95.3587513836893,39.9750715416393],[-95.363632024994,39.9750803943443],[-95.377306587649,39.9751041015175],[-95.3773784166683,39.9751042215131],[-95.377860175797,39.975105027484],[-95.3782072648898,39.975105605463],[-95.3816002057965,39.9751112122578],[-95.3962468337102,39.9751342733715],[-95.3962958607233,39.9751343473685],[-95.4019572782406,39.9751883780333],[-95.4031620555634,39.9751998399619],[-95.4149786937297,39.9753115992619],[-95.4149810877304,39.9753116222617],[-95.4330987175814,39.9754563041837],[-95.4339918718205,39.9754633631305],[-95.4340132528262,39.9754635901292],[-95.4400741374503,39.9755275887711],[-95.4435768433889,39.975564431564],[-95.4481531336151,39.9756124062935],[-95.4503425872016,39.975635294164],[-95.4519277836263,39.9756518410703],[-95.4526509678204,39.9756618230279],[-95.4541019762096,39.9756818399429],[-95.4566327938885,39.9757167077946],[-95.4613378061505,39.975781574519],[-95.4661041124289,39.9758472882397],[-95.4708704197072,39.9759129999604],[-95.4744598556569,39.9758361457293],[-95.4745830797127,39.9760599177584],[-95.4748495788015,39.9762312377701],[-95.4750970428753,39.9763073817674],[-95.475411132961,39.9763264167514],[-95.4750970428988,39.9765358098047],[-95.4748210248242,39.9765262918199],[-95.4745735617494,39.976440631821],[-95.4742499556689,39.97649773785],[-95.4741452576547,39.9766309888781],[-95.4739358656233,39.9768689349296],[-95.4739073116343,39.9770497739608],[-95.4742214017376,39.9772401309728],[-95.4745450088338,39.9773353089686],[-95.4749828289349,39.9771830229171],[-95.4752493279874,39.9770021848714],[-95.4754587220618,39.9771830228881],[-95.4754967920974,39.9774304879262],[-95.4752683650443,39.9775066289525],[-95.4751731860365,39.9776779519862],[-95.4752017390696,39.9779254140248],[-95.4752683641217,39.9782585400751],[-95.4752778831653,39.9786582881397],[-95.4753825792148,39.9788676821675],[-95.4756016412639,39.9787770361394],[-95.4756585962766,39.978753468132],[-95.4760012383583,39.9786582890956],[-95.4760202743868,39.9788867181317],[-95.476258221464,39.979019968139],[-95.4762011144713,39.9792388781781],[-95.4761400164772,39.9794547902171],[-95.4759124064344,39.9796291102593],[-95.4755978253531,39.9796546162826],[-95.4753841642979,39.9796719402984],[-95.4752699512762,39.9797576003194],[-95.4751271842734,39.9801002433839],[-95.4748023872058,39.9802858414339],[-95.4745989431439,39.9802108884341],[-95.4744561750918,39.9800752584207],[-95.4743205450266,39.979793292383],[-95.4742420239896,39.9796362483622],[-95.4741063949479,39.9795827103617],[-95.473831565876,39.9795969873807],[-95.4737066448541,39.9797076314064],[-95.4735674458339,39.9798730044418],[-95.4735864828664,39.9801395044841],[-95.4737578029376,39.980386968514],[-95.4741956240837,39.9806725035339],[-95.4745573022155,39.9810151465677],[-95.4745382662554,39.9814529666403],[-95.4744240532445,39.9816433236783],[-95.4741194821516,39.9815291096782],[-95.4737958750476,39.98135778867],[-95.4734532329581,39.9813768246939],[-95.4730915548989,39.9817385027749],[-95.47284408987,39.9821001808489],[-95.4731486609611,39.9821953588459],[-95.4734532330659,39.9824237878646],[-95.473643590146,39.9827093228995],[-95.4736145091767,39.9830837279623],[-95.47327937312,39.9834009530345],[-95.4732984091525,39.9836674520768],[-95.4735363542512,39.9840100951181],[-95.4736981583228,39.9842861121533],[-95.4737966153584,39.9843769961621],[-95.4739456224123,39.9845145411754],[-95.474364408524,39.9845145411499],[-95.4748212636351,39.9844098441051],[-95.474886110649,39.9843774210959],[-95.4751067996966,39.9842670770644],[-95.475578078815,39.9841959400241],[-95.4756112448234,39.9841909340213],[-95.4757412028772,39.9843777480439],[-95.4757635318865,39.9844098440477],[-95.476077620982,39.9845240580472],[-95.4762965300345,39.9844669510246],[-95.4765249580906,39.9844193620029],[-95.4767248341821,39.9847905580513],[-95.4766106201683,39.9849523610846],[-95.4763250850961,39.9849904331081],[-95.4761727980652,39.9850856111329],[-95.4761442460889,39.9853901831843],[-95.4760681030911,39.9856090932246],[-95.4758111200353,39.9857328252604],[-95.4759253350863,39.985932699286],[-95.4761823161598,39.9859802892782],[-95.4764392992156,39.9858565572424],[-95.4766677262824,39.9859136642378],[-95.4766677273147,39.9862277522889],[-95.4765630303015,39.9863705203186],[-95.4763359232554,39.9865108553553],[-95.4760300311544,39.9863229313433],[-95.4758316431214,39.9865163513869],[-95.4757677911044,39.9865170473909],[-95.4755462080641,39.9866996794342],[-95.4756186190867,39.9867322654351],[-95.4757841531386,39.9868067564371],[-95.4761529702493,39.9869257284341],[-95.4763195323267,39.9872469554763],[-95.4763790183842,39.9876514635386],[-95.4765098884595,39.9880440745946],[-95.4767240405375,39.9882463296145],[-95.4764979915054,39.9885199686729],[-95.4765336845442,39.9888055027172],[-95.4762600464859,39.9889482717572],[-95.4758555384099,39.9892576008323],[-95.4758317424366,39.989578827886],[-95.4762362515714,39.9898405679041],[-95.4765275406761,39.990102728929],[-95.4765931706997,39.9901617969347],[-95.4764623006893,39.9903997419815],[-95.4763671226969,39.9907209690396],[-95.4765217867688,39.9910184020786],[-95.4767835278509,39.9911373750821],[-95.4770809599168,39.9910065050427],[-95.477354596964,39.9907566609852],[-95.4775925440116,39.9906019959456],[-95.4777947970815,39.9907566609584],[-95.4776996200941,39.9911254770244],[-95.4773189050072,39.9912682460708],[-95.4767716298784,39.9914348081313],[-95.476355223771,39.9914705001624],[-95.476081586709,39.9915775751966],[-95.4759031276871,39.9918274192482],[-95.4758912297231,39.9922081313109],[-95.4759626137703,39.9924817693512],[-95.4757748057453,39.9927259204024],[-95.4757246667387,39.9927911004161],[-95.4757003377331,39.992799789419],[-95.4752249806237,39.9929695604756],[-95.4747371914973,39.9930052515111],[-95.4742018113495,39.9929576615359],[-95.4737854072813,39.9933740676292],[-95.4735206562438,39.9936963726978],[-95.4735117682426,39.9937071927001],[-95.4734403852443,39.9939094477375],[-95.4735185992838,39.994089342762],[-95.4735593583042,39.9941830857748],[-95.4734641793107,39.994492414831],[-95.473071567228,39.9947065668898],[-95.4725599830866,39.9946589779132],[-95.4722030639828,39.9945756969214],[-95.4718937348917,39.9944924149266],[-95.4714297387924,39.9947303619937],[-95.4712512797558,39.994837438022],[-95.4710578447018,39.9948135400299],[-95.470806875632,39.9947862790407],[-95.4704832695182,39.994519780017],[-95.4701406264111,39.9943674940131],[-95.4696076262709,39.9943865300486],[-95.4691507701744,39.9946339941167],[-95.4686939130447,39.9945578511322],[-95.4683131989255,39.9943865301274],[-95.4678753788067,39.994367494151],[-95.4675708077881,39.9949766362688],[-95.4675517728242,39.9953763853351],[-95.4676279148759,39.9956809553801],[-95.4679705579811,39.995814206381],[-95.4684654861131,39.9958142063508],[-95.4687700561885,39.995757099323],[-95.468731985147,39.9954525282757],[-95.468960414204,39.9954144572555],[-95.4691888422806,39.9955667422665],[-95.469207878321,39.9959093843212],[-95.4690555913156,39.9962520273862],[-95.4686748792298,39.9964043134342],[-95.4681038071107,39.9967279195218],[-95.467761165031,39.9968421325612],[-95.4673614149478,39.9970705626228],[-95.4672737049391,39.9972130916514],[-95.4672091299327,39.9973180266724],[-95.4671900939492,39.9975274187077],[-95.4667903438366,39.9974703107227],[-95.4665238447538,39.9973560977204],[-95.4664371507444,39.9974900797475],[-95.4663144507312,39.9976797047859],[-95.4663525237629,39.9978890968177],[-95.4662060277322,39.9979704838399],[-95.466181201727,39.9979842758436],[-95.4659527736484,39.9978129548296],[-95.4656482025652,39.9977939188451],[-95.4652484544821,39.9980223469066],[-95.4652294175123,39.9983649899636],[-95.4648677394569,39.9987647390508],[-95.4645060603604,39.9987647390728],[-95.4638778831869,39.9987076311018],[-95.4632116339974,39.9985934171238],[-95.462964169945,39.9987266681605],[-95.4623930998103,39.9988979892232],[-95.4619444567093,39.9990802502802],[-95.4618399937005,39.9992651403167],[-95.4616900876855,39.9995078453654],[-95.4615544576743,39.9997505504133],[-95.4615012416799,39.9999425704478],[-95.4614934926778,39.9999426304482],[-95.4614877996772,39.99995147245],[-95.4614726086756,39.9999750674548],[-95.4614593796739,39.9999924904585],[-95.4614482996724,40.0000070854615],[-95.4614348016709,40.0000280484658],[-95.4614242606698,40.0000444214691],[-95.4614117056685,40.000063921473],[-95.4614002216673,40.0000817584766],[-95.4613773406643,40.0001118954829],[-95.4613678946619,40.0001137624838],[-95.4612322646264,40.0001209004932],[-95.4610912805899,40.0001316085036],[-95.4610909015898,40.0001316265036],[-95.4610504935793,40.0001333105063],[-95.4610273115731,40.0001342755079],[-95.4610155945701,40.0001347635087],[-95.4609688565578,40.0001367115118],[-95.4608278735207,40.0001420655213],[-95.4607785965078,40.0001441185246],[-95.4607771485074,40.0001441485247],[-95.4606757704803,40.0001441485309],[-95.4605722634529,40.0001459325375],[-95.4605648594511,40.0001476955383],[-95.4604973104347,40.000163779545],[-95.4603895564098,40.0002007235575],[-95.4603287943964,40.0002279695657],[-95.4603260643958,40.0002291945661],[-95.4603109693931,40.0002430785692],[-95.4602824163947,40.0003323075855],[-95.460258938396,40.0004056735989],[-95.4602597793975,40.0004176376008],[-95.4602725414037,40.0004445826044],[-95.4602742404045,40.0004481686049],[-95.4603063654201,40.000515985614],[-95.4603176464255,40.0005398016172],[-95.4603198234265,40.0005443996178],[-95.4603237564282,40.0005499036185],[-95.460377294448,40.000603441624],[-95.4604258944659,40.0006520416289],[-95.4604315414679,40.0006562366292],[-95.4605011034904,40.0006944966312],[-95.4605692595125,40.0007319816332],[-95.4605726625136,40.0007342046333],[-95.4606197145299,40.0007705636364],[-95.4606499995404,40.0007939656383],[-95.460726942567,40.0008534206434],[-95.4607294495679,40.0008551296435],[-95.4608136435955,40.0009056456466],[-95.4609028736249,40.0009591836499],[-95.4609110646274,40.0009625306499],[-95.4609824486483,40.0009803776485],[-95.461046287667,40.0009963366472],[-95.4610525656687,40.000997288647],[-95.4612179387139,40.0010068066384],[-95.4612982217357,40.0010114276343],[-95.4613671477545,40.0010153936308],[-95.4613742637565,40.0010158036304],[-95.4613770837573,40.0010158336302],[-95.4613873687598,40.0010145716294],[-95.4615206187915,40.0009765006151],[-95.4616429058206,40.0009415616019],[-95.4616525138226,40.0009368186006],[-95.4617761288458,40.0008417305776],[-95.4618957288683,40.0007497295553],[-95.4618959708683,40.0007495465553],[-95.4619905068862,40.0006786445379],[-95.4620440758964,40.0006384675281],[-95.4621963609253,40.0005242545002],[-95.4622057279273,40.0005196944989],[-95.4622252869319,40.0005141054968],[-95.4622651489414,40.0005027154925],[-95.4623532259623,40.000477551483],[-95.4623933249718,40.0004660944788],[-95.4624646899888,40.0004457044711],[-95.4624689679898,40.0004441384706],[-95.4625864800156,40.0003908304547],[-95.4627032360413,40.000337864439],[-95.4627041960415,40.0003374294389],[-95.4627232830461,40.0003318574368],[-95.462811037067,40.0003081404275],[-95.4629210870933,40.000278396416],[-95.4629213710934,40.000278319416],[-95.4629320280961,40.0002772004151],[-95.4630480261277,40.0002831494091],[-95.4631553291569,40.0002886524034],[-95.4631616201587,40.0002895644032],[-95.4632697481902,40.0003158664009],[-95.4633728692203,40.0003409493987],[-95.4633747922209,40.0003414173986],[-95.4633819732231,40.0003441293987],[-95.4634580942476,40.0003847264007],[-95.4635473232763,40.000432315403],[-95.4635586212808,40.0004466164046],[-95.4635734932939,40.0005358454183],[-95.4635763902965,40.0005532254209],[-95.4635866343055,40.0006146884303],[-95.4635868503058,40.0006173064307],[-95.4635868513163,40.0007184324472],[-95.4635868513265,40.0008171934633],[-95.4635867113267,40.0008192934637],[-95.4635834643283,40.0008436484678],[-95.4635722713339,40.0009275974822],[-95.4635636213383,40.0009924714932],[-95.4635603543383,40.0010004214947],[-95.4635130493323,40.0010654645082],[-95.4634741773274,40.0011189165193],[-95.4634681633267,40.001127185521],[-95.4634676113267,40.0011279865212],[-95.4634184113213,40.0012032325364],[-95.4633681143158,40.001280155552],[-95.4633648163153,40.0012840395529],[-95.4632821043011,40.0013608425704],[-95.4632007592872,40.0014363785877],[-95.463199661287,40.0014374705879],[-95.463136242277,40.0015051166028],[-95.463110431273,40.0015326486089],[-95.4630219442591,40.0016270326297],[-95.4630215342591,40.0016274826298],[-95.4629443032474,40.0017146796487],[-95.4629306742454,40.001730067652],[-95.4628384702315,40.0018341686746],[-95.4628374112313,40.0018354656749],[-95.4628364422312,40.0018368796752],[-95.4627680332243,40.0019469296973],[-95.4627013182175,40.0020542547188],[-95.4626999332174,40.0020569557194],[-95.4626745652171,40.002118970731],[-95.4626473762167,40.0021854307435],[-95.4626208912163,40.0022501707556],[-95.4625944062159,40.0023149117678],[-95.4625917242156,40.0023194527687],[-95.4625233162063,40.0024057087869],[-95.4624580841973,40.0024879558043],[-95.4624546591968,40.002491398805],[-95.4623616171797,40.002566893823],[-95.4622352701566,40.0026694128475],[-95.4621926821487,40.0027039678557],[-95.4621747001446,40.0027103628578],[-95.4620055131002,40.0027174118693],[-95.461844840058,40.0027241068801],[-95.461840617057,40.0027245438805],[-95.4618228280525,40.002727508882],[-95.4616740150153,40.0027523108951],[-95.461504782973,40.00278051591],[-95.4614952849705,40.0027807719107],[-95.4614942139702,40.0027806529107],[-95.4614102709469,40.0027713259143],[-95.4613180919212,40.0027610839183],[-95.4611253548676,40.0027396689265],[-95.4611079608622,40.0027318429263],[-95.460972331812,40.0025962139124],[-95.4609445098017,40.0025683929096],[-95.4608465907655,40.0024704728996],[-95.4608419497635,40.0024632418987],[-95.460832227758,40.0024352908948],[-95.4608011457405,40.0023459318821],[-95.4607765017267,40.002275079872],[-95.4607295447002,40.0021400788529],[-95.4607284986997,40.0021376738526],[-95.4606743146747,40.0020347228391],[-95.4606586106674,40.0020048838352],[-95.4605872266343,40.0018692538174],[-95.4605855956337,40.0018666848171],[-95.4605851146334,40.001866067817],[-95.4604981165992,40.0017589948049],[-95.4604053175627,40.0016447807919],[-95.4603927825585,40.0016366457914],[-95.4602738995229,40.0015991027925],[-95.4601382694823,40.0015562727937],[-95.4601204064775,40.0015555977947],[-95.4600482524599,40.0015722488019],[-95.4599554534374,40.001593664811],[-95.4599388394341,40.0016047578138],[-95.45989600943,40.001676141828],[-95.4598583924264,40.0017388368405],[-95.4598580824264,40.0017393728407],[-95.4598575024263,40.0017404168409],[-95.459828812424,40.001792057851],[-95.4598173054231,40.0018127718551],[-95.4597534314179,40.0019277458777],[-95.4597472364174,40.0019388958799],[-95.4597162024148,40.0019947568909],[-95.4597144974147,40.0019973158914],[-95.459635974404,40.0020972529125],[-95.4596224034021,40.0021145259161],[-95.4595591973935,40.0021949689331],[-95.4595575053933,40.0021968729335],[-95.4594906513824,40.0022637269485],[-95.4594192673706,40.0023351109645],[-95.4594103993689,40.002340824966],[-95.4593143443472,40.0023792469781],[-95.459207268323,40.0024220779916],[-95.4591759183149,40.0024244469938],[-95.4591066342964,40.0024246219981],[-95.4590287032757,40.0024248190029],[-95.4590284682756,40.0024248200029],[-95.4590282232756,40.0024248190029],[-95.4590266742751,40.002424818003],[-95.45893247925,40.0024246230087],[-95.4588264132216,40.0024244060152],[-95.4587979672127,40.0024116330148],[-95.4586967391784,40.0023401790093],[-95.4586870291751,40.0023333250088],[-95.4585772821378,40.0022558560028],[-95.4585710761355,40.0022493140022],[-95.458508462108,40.002144955989],[-95.4584464650808,40.0020416289759],[-95.4584422650792,40.0020366629753],[-95.4583497470462,40.0019557099678],[-95.4582355340054,40.0018557739585],[-95.4582188359994,40.0018411639571],[-95.4582133199976,40.0018374939568],[-95.4580945689598,40.0017781179544],[-95.4579660779189,40.0017138729518],[-95.4579514859147,40.0017105459521],[-95.4578674258922,40.0017105459572],[-95.4577674868655,40.0017105459633],[-95.457739101859,40.0017207699667],[-95.4576686028438,40.0017560189767],[-95.4575686648223,40.001805987991],[-95.4575543738207,40.0018277129954],[-95.4575474598212,40.0018501809994],[-95.4575189058232,40.0019429800163],[-95.4575032868242,40.0019937430255],[-95.4575025678245,40.0019984830264],[-95.4575025678316,40.0020671060375],[-95.4575025678325,40.0020762680391],[-95.4575025678452,40.0021995440591],[-95.4575025678521,40.0022665520701],[-95.4575026458522,40.0022681300703],[-95.4575137348666,40.0023790170877],[-95.4575163898701,40.0024055520919],[-95.4575306658886,40.0025483201143],[-95.4575340398904,40.0025568551154],[-95.457591926914,40.0026357921248],[-95.4576702929459,40.0027426541374],[-95.4576791509495,40.0027547331388],[-95.4576880089531,40.0027668131403],[-95.4576883209532,40.0027672511403],[-95.4577506829791,40.0028573281512],[-95.457759955983,40.0028707221528],[-95.4578149290058,40.0029501271624],[-95.4578174450071,40.0029553851631],[-95.4578457060248,40.0030542941775],[-95.4578734700422,40.0031514721917],[-95.4578741920426,40.003153497192],[-95.4579151670634,40.003249108205],[-95.4579579980851,40.0033490462187],[-95.4579683180891,40.0033612662201],[-95.458019310108,40.0034122592253],[-95.4580306821122,40.0034236312265],[-95.4580716681273,40.0034646182306],[-95.4580757931288,40.0034679092309],[-95.4580761631289,40.003468142231],[-95.4581235961446,40.0034973322328],[-95.4582163961752,40.0035544382365],[-95.4582567881885,40.003579295238],[-95.4582620701902,40.0035818322381],[-95.4584165992373,40.0036380252379],[-95.4585708112842,40.0036941022376],[-95.4585755462856,40.0036963112377],[-95.4586600473133,40.0037456032406],[-95.4587434873406,40.0037942772435],[-95.4587458903413,40.0037955272435],[-95.4588303883679,40.0038345272447],[-95.4589219443967,40.003876783246],[-95.4589334394009,40.0038876432471],[-95.4589492334087,40.0039223882518],[-95.4589817304247,40.0039938812615],[-95.4590013614344,40.0040370702673],[-95.4590014774345,40.0040373182673],[-95.4590019364347,40.0040382242675],[-95.4590213044435,40.0040738132721],[-95.4590438974538,40.0041153352775],[-95.4590398474556,40.0041435062823],[-95.4590346434558,40.004158376285],[-95.459027760456,40.0041780432886],[-95.4590241624556,40.0041841372899],[-95.4589944184512,40.0042183422973],[-95.4589677494473,40.0042490113039],[-95.458966425447,40.0042504043042],[-95.458966315447,40.0042505093042],[-95.4589306644411,40.004284888312],[-95.4588891334341,40.0043249363211],[-95.4588637184283,40.0043345543241],[-95.458817109417,40.0043450173287],[-95.4588028334135,40.0043482213301],[-95.4587402453982,40.0043622713362],[-95.4587358863971,40.0043629543366],[-95.4586377353718,40.004371877344],[-95.4585426703474,40.0043805193512],[-95.4585409173469,40.0043806333513],[-95.4584683633279,40.0043835363562],[-95.4583940043083,40.0043865103612],[-95.4583926143079,40.0043865383613],[-95.4583921613078,40.0043865353614],[-95.4583371162931,40.0043858213646],[-95.4582820712783,40.0043851063678],[-95.4581675592476,40.0043836183745],[-95.4581606862457,40.0043828353749],[-95.4581130972319,40.0043724253761],[-95.4580710962197,40.0043632373771],[-95.4580668042185,40.0043619833772],[-95.4579919991957,40.0043342793772],[-95.4579116921712,40.0043045353772],[-95.4579054351692,40.0043013133771],[-95.4578623081546,40.0042715703749],[-95.4578227201412,40.0042442693728],[-95.4578213461407,40.0042432513728],[-95.457756233118,40.0041914563683],[-95.4576914620955,40.0041399343638],[-95.4576908010952,40.0041394273638],[-95.4576887690945,40.0041379193637],[-95.4576447060794,40.004105227361],[-95.4575989360637,40.0040712693583],[-95.4575846720588,40.0040606733574],[-95.4575705570539,40.0040501883566],[-95.4575354310419,40.0040240943545],[-95.4574943080277,40.0039930203519],[-95.4574929190271,40.0039913253517],[-95.4574609030141,40.0039476663466],[-95.4574301020016,40.0039056633416],[-95.4574299670015,40.0039054823416],[-95.457428570001,40.0039038113414],[-95.4574226319987,40.0038974193407],[-95.4573718559796,40.0038427363349],[-95.4573146879579,40.0037811693283],[-95.4573134629575,40.0037797063282],[-95.457312427957,40.003778255328],[-95.4572712179394,40.00371349632],[-95.4572383589253,40.0036618613135],[-95.4572305499219,40.003649590312],[-95.4572296579216,40.0036483063119],[-95.4571969479084,40.0036051883068],[-95.4571646928954,40.0035626693018],[-95.4571646008954,40.0035625473019],[-95.4571527888906,40.0035466453],[-95.4571263538798,40.0035110602958],[-95.4571004298693,40.0034761632917],[-95.4570881978644,40.0034596972897],[-95.4570866998637,40.0034573432894],[-95.4570621558525,40.0034116422835],[-95.457019680833,40.0033325502732],[-95.4570026648252,40.003300865269],[-95.4569984618235,40.0032955202685],[-95.4569626518106,40.0032625762653],[-95.4569281077981,40.0032307952622],[-95.4569256457972,40.0032281232619],[-95.4569064987895,40.003203392259],[-95.4568718997757,40.0031587012538],[-95.4568561667694,40.0031383802515],[-95.4568543857687,40.0031363612513],[-95.4567874627439,40.0030694392445],[-95.4567798627411,40.0030618382437],[-95.4567221257198,40.0030041012378],[-95.4567208297193,40.0030029032377],[-95.4566791897045,40.0029672112344],[-95.4566388756902,40.0029326552312],[-95.4566375356897,40.0029315882311],[-95.4565936366746,40.0028990172285],[-95.4565475346588,40.0028648132257],[-95.4565461556584,40.0028638592257],[-95.4565443026578,40.0028627652256],[-95.4564863036391,40.002831535224],[-95.4564306836211,40.0028015862225],[-95.4564293376207,40.0028009072225],[-95.4563787596048,40.0027770232217],[-95.4563252215878,40.0027517412209],[-95.4563204465864,40.0027499612208],[-95.4562907705776,40.0027415742213],[-95.4562223215573,40.0027222292223],[-95.4561866545468,40.0027121492228],[-95.4561855685465,40.0027118642229],[-95.4561228455281,40.0026965322241],[-95.4560559225086,40.0026801732256],[-95.4560484705065,40.0026792122259],[-95.4559701694855,40.0026777352304],[-95.4558951644653,40.0026763192347],[-95.455894112465,40.0026762832348],[-95.4558049684408,40.0026718992395],[-95.4557147834163,40.0026674642443],[-95.4557130754158,40.0026674212444],[-95.4557116474154,40.0026674502445],[-95.4556084223883,40.0026716932514],[-95.4554998583598,40.0026761542588],[-95.4554925163579,40.0026772612594],[-95.4554032873366,40.0027010562687],[-95.4553210793169,40.0027229782773],[-95.4552796773081,40.0027440852832],[-95.4552447243006,40.0027626762884],[-95.4551926322896,40.0027903852961],[-95.4551780622865,40.0027981352983],[-95.4551776132864,40.0027983792983],[-95.4551108442724,40.0028354733084],[-95.4550441412584,40.0028725303186],[-95.4550438202584,40.0028727063186],[-95.4550109292514,40.0028904163235],[-95.4549724322432,40.0029111453292],[-95.4549636222417,40.002919149331],[-95.4549175202371,40.002993507346],[-95.4548765672329,40.0030595593592],[-95.4548700312358,40.003104528367],[-95.4548666152382,40.0031366383724],[-95.4548599022429,40.0031997433831],[-95.4548596412431,40.0032021963835],[-95.4548595612432,40.0032033283837],[-95.4548573052494,40.0032687653945],[-95.4548565872513,40.0032895843979],[-95.4548536412593,40.0033750014121],[-95.4548536322593,40.0033755474121],[-95.4548536312652,40.0034320594213],[-95.454853631271,40.0034883014305],[-95.4548536312737,40.0035152204349],[-95.4548536312766,40.0035428894394],[-95.4548536322778,40.0035547124413],[-95.4548536322802,40.0035780984452],[-95.4548536322838,40.0036128894508],[-95.4548536462839,40.0036135634509],[-95.4548564212913,40.0036787644614],[-95.4548579082953,40.003713713467],[-95.4548593952994,40.0037486614726],[-95.4548620453009,40.0037569404737],[-95.4549021983182,40.0038208874817],[-95.454938774334,40.003879139489],[-95.454941414335,40.0038824874894],[-95.4549875163522,40.0039300764943],[-95.4550316913687,40.0039756764991],[-95.455032518369,40.0039764884992],[-95.4550748723844,40.004015920503],[-95.4551175733998,40.0040556765069],[-95.4551190334004,40.004057169507],[-95.455125975403,40.0040649795079],[-95.4551481324115,40.0040899065106],[-95.455164984418,40.0041088655127],[-95.4551667054187,40.0041110915129],[-95.4551779584234,40.004127969515],[-95.4551875274275,40.0041423215167],[-95.4552074754359,40.0041722445204],[-95.455207673436,40.0041725455204],[-95.4552304094457,40.0042080715249],[-95.4552337604471,40.0042133085255],[-95.4552541074558,40.0042451015294],[-95.4552565894568,40.0042482385298],[-95.4552889814689,40.0042819795333],[-95.4553232504817,40.0043176755371],[-95.4553277984837,40.004325274538],[-95.4553452564944,40.0043834675464],[-95.4553618535045,40.0044387925544],[-95.455362812505,40.0044412675547],[-95.4553823965144,40.0044818335602],[-95.4554026465241,40.0045237785658],[-95.4554041925251,40.0045291305666],[-95.455411629534,40.004596052577],[-95.4554186735424,40.0046594625869],[-95.4554187685426,40.0046609225872],[-95.455419354546,40.0046925985923],[-95.4554202455512,40.0047407026001],[-95.4554217195598,40.004820274613],[-95.4554217745599,40.0048213266131],[-95.4554276235685,40.0048900576239],[-95.4554335275773,40.0049594286349],[-95.4554335535775,40.0049617616353],[-95.4554290915836,40.0050331456472],[-95.4554247125897,40.0051032226589],[-95.4554246955897,40.0051034496589],[-95.4554220715925,40.0051375696647],[-95.4554190965957,40.0051762346711],[-95.4554059065946,40.0051993806757],[-95.4553895475927,40.0052231746806],[-95.4553617405869,40.0052394176849],[-95.455343893583,40.0052475976874],[-95.4553162455769,40.0052602696911],[-95.4553159235769,40.0052604146911],[-95.4553129415762,40.0052615546915],[-95.4552634905646,40.0052775926971],[-95.4552084655518,40.0052954387034],[-95.4551836945455,40.0052981167053],[-95.4551349915328,40.0053014377088],[-95.4550768395177,40.005305402713],[-95.455070646516,40.0053052717134],[-95.4550124664999,40.0052988077159],[-95.4549455444812,40.0052913707187],[-95.4549239314746,40.0052829797187],[-95.4548800344606,40.0052616247179],[-95.4548326094456,40.005238552717],[-95.454827570444,40.0052353817168],[-95.4547591614201,40.005180356712],[-95.4546943973974,40.0051282637074],[-95.4546918663965,40.0051258977072],[-95.454643212378,40.0050728197015],[-95.4545952873599,40.005020538696],[-95.4545944163595,40.0050196406959],[-95.454538564339,40.0049652586904],[-95.4544825013185,40.0049106726849],[-95.4544812473179,40.0049093456848],[-95.4544346163,40.0048556486789],[-95.454385540281,40.0047991376726],[-95.4543825742798,40.0047945896721],[-95.4543690162731,40.0047652146681],[-95.4543669172721,40.0047606656675],[-95.4543344392562,40.004690297658],[-95.4543132272458,40.0046443366518],[-95.4543111812449,40.0046409286514],[-95.4543108732448,40.0046405286514],[-95.4542850652346,40.0046078756476],[-95.4542444352184,40.0045564686417],[-95.4542262832112,40.004533502639],[-95.4542217152096,40.0045291766386],[-95.4541198721748,40.0044557546329],[-95.4540202241408,40.0043839156272],[-95.4540193011405,40.0043832176272],[-95.4539394081126,40.0043197726217],[-95.4538589540846,40.0042558836162],[-95.4538568810838,40.0042544016161],[-95.4537711700553,40.0041996426123],[-95.4537682450544,40.0041977736122],[-95.4536868860273,40.0041457946087],[-95.4536863580272,40.0041454646087],[-95.453637451011,40.0041158006068],[-95.453576603991,40.0040788936045],[-95.4535449909806,40.0040597176033],[-95.4533998429328,40.0039716765978],[-95.4533921089304,40.0039684095978],[-95.453268502894,40.0039351315999],[-95.4531489918588,40.0039029566019],[-95.4531487378586,40.0039028876019],[-95.4529361357959,40.0038437936052],[-95.4527172717312,40.0037829586086],[-95.4525372406784,40.0037367116121],[-95.452547217673,40.0036588895988],[-95.4525579666673,40.0035750405845],[-95.4525731096591,40.0034569205643],[-95.4525857186524,40.0033585725475],[-95.452587231652,40.0033510625462],[-95.4525987186507,40.0033094225387],[-95.4526408496463,40.0031566965112],[-95.4527541396342,40.0027460204374],[-95.4528137076279,40.0025300813986],[-95.4528151166276,40.0025233333974],[-95.4528854825956,40.0020307783128],[-95.4529436935692,40.0016233072429],[-95.452953072565,40.0015576552316],[-95.4529568665632,40.001531092227],[-95.4529573995626,40.0015235972258],[-95.4529574005479,40.0013811362025],[-95.4529574005263,40.0011714491684],[-95.452957399524,40.0011491411648],[-95.4529574004913,40.0008313651129],[-95.4529574004674,40.0005993700751],[-95.4529574044636,40.000561630069],[-95.452957424406,40.0000026789779],[-95.4529572993947,39.99989284096],[-95.4529630973811,39.9997460539357],[-95.4529604873773,39.999715777931],[-95.4529545383607,39.9995700359075],[-95.4529422773428,39.9994278008851],[-95.4529274043251,39.9992939558642],[-95.4529095593047,39.9991422658406],[-95.4528887382872,39.9990262668229],[-95.4528530452617,39.9988716017999],[-95.45282330324,39.9987377567799],[-95.4527786892158,39.9986187837632],[-95.4527192021819,39.9984432977382],[-95.4526626901543,39.9983213507218],[-95.4526121261325,39.9982410447118],[-95.4525318210985,39.9981190966968],[-95.4524886920811,39.99806109769],[-95.4524455650635,39.9980030986831],[-95.452365259032,39.997904944672],[-95.4522671049967,39.9978157156635],[-95.4521481319551,39.9977205366552],[-95.4520879169341,39.9976729536511],[-95.4520415469188,39.9976447276493],[-95.4520367669173,39.9976418186491],[-95.4520195069115,39.9976313126485],[-95.4519442008871,39.9975887976461],[-95.4517211888172,39.9974877106432],[-95.4516100987797,39.9974117326376],[-95.4515078797458,39.9973473086333],[-95.4513405906923,39.9972613916295],[-95.4512755656683,39.997196989623],[-95.4511082856141,39.997103921618],[-95.450875930541,39.9969965106146],[-95.4507272174947,39.9969320576132],[-95.4505413134385,39.996867583614],[-95.4504204614033,39.9968389046166],[-95.4502810143631,39.9968102156205],[-95.4501561843291,39.9968030286269],[-95.4500299702946,39.9967957626334],[-95.4498160982383,39.9968027856476],[-95.4495743011774,39.9968383976681],[-95.4492395050932,39.9968882556966],[-95.4490033520315,39.9969015657131],[-95.4489884320276,39.9969024067142],[-95.4486908359526,39.9969451337393],[-95.4485233969145,39.9970093957599],[-95.4482443978445,39.9970521337839],[-95.4481774148278,39.99706421179],[-95.4479281887659,39.9971091508124],[-95.4476213156862,39.9971304158346],[-95.4472958076052,39.9971874258637],[-95.44719606058,39.9972017458721],[-95.4469982095302,39.9972301488888],[-95.44675640247,39.9972729069105],[-95.4465053264045,39.9972870519281],[-95.4461798553198,39.9973083009514],[-95.4459194662532,39.9973367419718],[-95.4456219121738,39.9973365529899],[-95.4455103141455,39.9973507849991],[-95.445380219112,39.997363207009],[-95.4453615231072,39.9973649930104],[-95.4450267830172,39.9973576260296],[-95.4449431119933,39.9973432690324],[-95.4447478889368,39.9973002340372],[-95.4447149559268,39.9972882880373],[-95.4445898768887,39.9972429190375],[-95.4444411948402,39.9971570050325],[-95.444236697779,39.9970925080345],[-95.4440136357099,39.9969993920329],[-95.4437533656322,39.9969205560359],[-95.4436046205896,39.9968918520403],[-95.4435606925768,39.9968810090412],[-95.4433722225217,39.9968344870451],[-95.4431956084694,39.9967843100476],[-95.4430416834239,39.99674144505],[-95.4428609673705,39.9966911190528],[-95.4427401753301,39.9966123720473],[-95.4425356822689,39.9965478720492],[-95.4424253822361,39.9965147970506],[-95.4423683672191,39.9964977000512],[-95.4422584941885,39.9964851060559],[-95.4421173421491,39.9964689260619],[-95.4418942280851,39.9964258680684],[-95.4417547610472,39.9964186230757],[-95.4415316389839,39.9963827150835],[-95.4413177999246,39.9963611160929],[-95.4411039378675,39.996360971106],[-95.4408899838185,39.9964394941317],[-95.4407597067926,39.9965252241537],[-95.4405364377425,39.9966180421824],[-95.4403596597049,39.9967108922083],[-95.4401177516535,39.996839454244],[-95.4399316166186,39.9969823572786],[-95.4398876226115,39.9970273872886],[-95.439791972596,39.9971252923104],[-95.439609043561,39.9972590443434],[-95.4395965365586,39.9972681883456],[-95.4395259295479,39.9973478933629],[-95.4394382525347,39.9974468683844],[-95.4392706865069,39.9976112384214],[-95.439140347486,39.9977470274514],[-95.4390006494679,39.9979328704903],[-95.4388609934461,39.9980829555232],[-95.4387583944327,39.9982194435517],[-95.4387212944279,39.998268798562],[-95.4386002264118,39.9984260485951],[-95.4384977384021,39.9985976136292],[-95.4383673273871,39.9987906136686],[-95.4382928103783,39.9988978356907],[-95.4382089523706,39.9990408067191],[-95.4381721953741,39.9991702747424],[-95.4381622623751,39.9992052597487],[-95.4381255533737,39.9992865817642],[-95.4380783533718,39.9993911407842],[-95.4379944163707,39.999598476823],[-95.4379477953693,39.9997057168434],[-95.4379291523706,39.9997663628544],[-95.4379115263718,39.9998236998648],[-95.4379033723723,39.9998502308697],[-95.4378829893737,39.9999165348817],[-95.4378727533803,40.0000072518971],[-95.4378690703827,40.0000399069026],[-95.4378680993834,40.0000485129041],[-95.43778099037,40.0001445929251],[-95.4377714503701,40.0001700849298],[-95.4377223643705,40.0003012549542],[-95.4376415013664,40.0004713339868],[-95.4375828753668,40.000627996016],[-95.4374700243552,40.0008072820521],[-95.4372981323359,40.0010650381045],[-95.4370739823088,40.0013836331701],[-95.4368498302817,40.0017022262357],[-95.4367352402658,40.0018447152659],[-95.4366640872559,40.0019331912847],[-95.4365634042428,40.0020662273125],[-95.4364834302477,40.002321583359],[-95.4364459212503,40.0024442283812],[-95.4363917892541,40.0026212284134],[-95.4363662512628,40.0027717514395],[-95.4363720292783,40.0029075274613],[-95.4363166722971,40.0032338185178],[-95.4362911023031,40.0033590655398],[-95.4362586843196,40.0036022835814],[-95.4362033253384,40.003928573638],[-95.4361827273515,40.0041090006687],[-95.4361646783676,40.0043122407029],[-95.4361548753763,40.0044226117215],[-95.4361466283837,40.0045154797371],[-95.4360376514207,40.0051577898484],[-95.4358469524207,40.0056523879407],[-95.4356230443826,40.0058625739886],[-95.4354782343632,40.0060491510278],[-95.4346858171431,40.0059663440626],[-95.4342070820054,40.0058703480761],[-95.4338145438541,40.0054187090264],[-95.4335517897519,40.0051070679916],[-95.4334517626559,40.004434466888],[-95.4334497056539,40.0044206338858],[-95.4334353116401,40.004323842871],[-95.4334166345802,40.003789531785],[-95.4334554075597,40.003490937734],[-95.4334693055525,40.0033839007157],[-95.4336523945521,40.0029052736265],[-95.4338294825517,40.0024423225402],[-95.4338354795516,40.0024266465373],[-95.4340695165312,40.0016206223917],[-95.4340695875312,40.0016203793916],[-95.4341358805253,40.0013920603503],[-95.434297095496,40.0006881552258],[-95.4343332424894,40.0005303271979],[-95.4343866764675,40.0001796341374],[-95.4344059004597,40.0000534611156],[-95.434413672457,40.0000070711077],[-95.4344346614497,39.999881793086],[-95.4344421704296,39.9996674380505],[-95.4344424194091,39.9994671950179],[-95.4344333693861,39.9992669449858],[-95.4343963613607,39.9991167359635],[-95.4343686593371,39.9989593809396],[-95.4343316333132,39.9988234739196],[-95.4342202982629,39.9986231488938],[-95.4341367342303,39.9985229658825],[-95.4341210872243,39.9985056318807],[-95.4339881611737,39.9983583708647],[-95.4338953171371,39.9982438778517],[-95.433746726082,39.9980935858363],[-95.4337395660793,39.9980864448355],[-95.4335888470237,39.9979361338202],[-95.4335845460221,39.9979318998198],[-95.4334216779621,39.9977715248035],[-95.4332172988921,39.9976211897915],[-95.433050113832,39.9974708827771],[-95.4328178667523,39.9972990727633],[-95.4325762676745,39.997170162757],[-95.4323996796208,39.9971056667572],[-95.4321859405534,39.9970053837539],[-95.4320280494965,39.9968622337401],[-95.4318422534329,39.9967262137293],[-95.4316099763562,39.99658300672],[-95.4313962962844,39.9964398137097],[-95.4312383332334,39.9963538747053],[-95.4310246171645,39.9962392866996],[-95.4310221021637,39.9962376826995],[-95.430755187075,39.996067443688],[-95.4305693400158,39.9959743306841],[-95.4302905859259,39.9958239336766],[-95.4300675658553,39.9957164886726],[-95.4298909628029,39.9956662916752],[-95.4295377307006,39.9955873506838],[-95.4293611286483,39.9955371526864],[-95.4291937696029,39.9955298706954],[-95.4289706285417,39.9955153927066],[-95.4287381624804,39.9955223627219],[-95.4284405704046,39.9955578867458],[-95.4280500353084,39.9956362267823],[-95.4280499363084,39.9956362467823],[-95.4278546062614,39.9956861528023],[-95.4276592662151,39.9957432108236],[-95.4273987971544,39.9958288228533],[-95.4272406291195,39.9959002118746],[-95.4271010200925,39.9960002218994],[-95.4269800060705,39.9961002469231],[-95.4268404040428,39.9961931059467],[-95.4267285820313,39.9963718049827],[-95.4266391390181,39.9964747600049],[-95.426598201012,39.9965218840151],[-95.4265170350026,39.9966416270396],[-95.4264770789981,39.9967005750516],[-95.4263559069877,39.996915024094],[-95.4262851679814,39.9970370921182],[-95.4262813439811,39.9970436911195],[-95.4262066449847,39.9972724811613],[-95.4261259179799,39.9974356501928],[-95.4261040779786,39.9974797942014],[-95.4260572829889,39.9977014542404],[-95.4260106049905,39.9978372962653],[-95.4260072789977,39.9979164962785],[-95.4260009940115,39.9980661373032],[-95.4259955460129,39.9980944243082],[-95.425954169024,39.9983092523457],[-95.4259538470481,39.9985452533843],[-95.4259348880703,39.9988098454286],[-95.4259346830857,39.998960027453],[-95.4259327390878,39.9989849964573],[-95.4259157531057,39.9992031644938],[-95.4259432591424,39.9994892485388],[-95.4259710581572,39.9995607865488],[-95.425998857172,39.9996323245587],[-95.4259986421882,39.9997896585844],[-95.426101406222,39.9998516095883],[-95.4261663312518,39.9999732386041],[-95.4261939622627,40.000007083608],[-95.4262228602741,40.000042479612],[-95.4262520712855,40.000078259616],[-95.4263452733176,40.0001475516217],[-95.4263602583234,40.0001659826238],[-95.4264691833635,40.0002728536346],[-95.4267329404565,40.0004924536543],[-95.4268418674966,40.0005993246651],[-95.4270478845607,40.0006873286669],[-95.4278310398078,40.0010572156796],[-95.4278318808081,40.0010575666796],[-95.428251267938,40.0012327496826],[-95.4283490939684,40.0012736116833],[-95.4286512100605,40.0013848246831],[-95.428964232157,40.0015112876846],[-95.4292984062554,40.0016001426788],[-95.4298784744322,40.0018136646782],[-95.4298899884359,40.0018191986785],[-95.4303183455715,40.002025101686],[-95.4304836836275,40.0021411036948],[-95.4305740316588,40.0022105767007],[-95.4307624667349,40.0024616317301],[-95.4311974208855,40.0027961107582],[-95.4312217829084,40.0029554757827],[-95.4312201529097,40.0029720227854],[-95.4312022149236,40.0031541528162],[-95.4312310319507,40.0033426578452],[-95.4312603899783,40.0035346968747],[-95.431161833971,40.0037189699108],[-95.4307613769168,40.0042308530186],[-95.4304635078598,40.0044497740724],[-95.4302773368157,40.0045048660927],[-95.4301614187883,40.0045391591054],[-95.4300909147716,40.0045600181131],[-95.4299144707299,40.0046122161323],[-95.4291151695357,40.0047988932114],[-95.428180972295,40.004882645282],[-95.4277510151756,40.0048385173009],[-95.4271208430007,40.0047738373288],[-95.4269282029461,40.0047427903354],[-95.4260384936938,40.0045993933662],[-95.4259104756552,40.0045567153671],[-95.4254228605083,40.0043941553702],[-95.4253910104988,40.0043835373705],[-95.4247906622994,40.0040039453451],[-95.4243568231545,40.0037214983255],[-95.424145801084,40.0035841143159],[-95.4240155080405,40.00349928631],[-95.4238936279998,40.0034199383045],[-95.4238529339846,40.0033780523001],[-95.4231535037238,40.0026581392253],[-95.422907679631,40.0023943961973],[-95.4226787315446,40.0021487581712],[-95.4226565005362,40.0021249051686],[-95.4225369634911,40.001996653155],[-95.422352116375,40.0013480080605],[-95.4223186553581,40.00127092605],[-95.4221748792857,40.0009397240047],[-95.4221062582511,40.0007816479831],[-95.4220686492321,40.0006950099712],[-95.4216257400969,40.0005298719713],[-95.4216242350964,40.0005293109713],[-95.421465772048,40.0004702279713],[-95.4213429229711,40.0000414349089],[-95.4213166239606,40.0000071579049],[-95.4212675969409,39.9999432538974],[-95.4212384759225,39.9998400698824],[-95.4211704898896,39.9996969808632],[-95.4211149428571,39.9995252968385],[-95.4210779398335,39.999391769819],[-95.4210037477995,39.999253443801],[-95.4209503797725,39.9991298557841],[-95.4209481407714,39.9991246687834],[-95.4208677297372,39.999000640768],[-95.4207997717023,39.9988384797457],[-95.420713210663,39.9986810727253],[-95.4206575556383,39.9985856717132],[-95.4205461575953,39.9984568476989],[-95.4204719255643,39.9983471286856],[-95.4203790565311,39.998265997678],[-95.4202614874845,39.998118097661],[-95.4201624414482,39.9980226596515],[-95.4200881824191,39.9979320096412],[-95.420020104393,39.9978556676329],[-95.4199396333632,39.9977745476246],[-95.4198477053341,39.997730670623],[-95.4198095443221,39.9977124566224],[-95.4196794192834,39.997674201624],[-95.419561679249,39.9976454946265],[-95.4193447401891,39.9976262356366],[-95.4191339721328,39.9976260536494],[-95.4189045940725,39.9976353906649],[-95.4186937980182,39.9976542786808],[-95.4184954209657,39.9976588726936],[-95.4182970169152,39.9976825387095],[-95.4181047828682,39.9977252797282],[-95.4179434868335,39.9978061887512],[-95.4177821977983,39.9978823307735],[-95.4176519047713,39.9979584997938],[-95.417562655753,39.9980117608079],[-95.4174843807369,39.9980584738203],[-95.4173726697159,39.9981441938411],[-95.4172423466909,39.9982394328646],[-95.4172108526866,39.998279695873],[-95.4171119146732,39.9984061878996],[-95.4170311996605,39.9984919349186],[-95.416925627645,39.9986158009452],[-95.4167704346183,39.9987586949779],[-95.4167207206134,39.9988397009942],[-95.4166337026058,39.9989921900244],[-95.4165742166005,39.9990948090447],[-95.4165342585969,39.9991637390583],[-95.4164534975871,39.9992780910819],[-95.4163968715804,39.9993595200986],[-95.4163965285803,39.9993600150988],[-95.4163540945753,39.9994210341113],[-95.4163450655767,39.9994582931179],[-95.4163384995777,39.9994853841228],[-95.4163229045802,39.9995497341342],[-95.4162234865693,39.9997022121651],[-95.4162047305751,39.9998070851833],[-95.4162005115746,39.9998128401845],[-95.4161415185671,39.9998933142013],[-95.4161109675638,39.9999402882108],[-95.4160169625456,40.0000070842274],[-95.4159020115233,40.0000887642477],[-95.4158689135202,40.0001450922589],[-95.415857191519,40.0001631152626],[-95.4154220954716,40.0008320773981],[-95.4151447814461,40.001304009492],[-95.4149898154293,40.0015422655402],[-95.4143821633125,40.0019837456492],[-95.4139811942356,40.0022771337215],[-95.413586894147,40.002439829772],[-95.4132695840639,40.0024551147938],[-95.4126490789034,40.0025058218398],[-95.4124146578426,40.002523384857],[-95.4122970588117,40.0025281618649],[-95.4121127647597,40.0025007408717],[-95.4118952866888,40.0023765848646],[-95.4116171856103,40.0023351908748],[-95.4113467365289,40.0022457708767],[-95.4107290753418,40.0020307148792],[-95.4105077932622,40.00183068586],[-95.4098766890782,40.0016803718739],[-95.4097748150473,40.0016448998743],[-95.408918571788,40.0013467568779],[-95.4082007915788,40.0011757868936],[-95.407428101366,40.0011131579304],[-95.4071416522922,40.0011395539522],[-95.406646166172,40.0012568040014],[-95.4062671180835,40.0013812660448],[-95.4060394180363,40.0015129070801],[-95.4054003319036,40.0018823801792],[-95.4053926119021,40.0018878031806],[-95.4050960188444,40.0020961732327],[-95.4047684347826,40.0023458002933],[-95.4043795927291,40.0028345163967],[-95.4042889007119,40.0029036234135],[-95.4042429307056,40.0029614014257],[-95.4039037686641,40.0034381345241],[-95.4037636916448,40.0036141845613],[-95.4036248706257,40.0037886545982],[-95.4034881276212,40.0040997096573],[-95.4034728396206,40.0041344846639],[-95.4034233096222,40.0042783646904],[-95.4031890326297,40.0049589108156],[-95.4031147346272,40.0051279138477],[-95.4029273646243,40.0055858319338],[-95.4028541266171,40.0057056169578],[-95.4026868196006,40.0059792530126],[-95.4024081995672,40.0063782250946],[-95.4021918205246,40.0065255641318],[-95.4017806284397,40.0067679961964],[-95.4016389554118,40.0068644742207],[-95.4014680103781,40.0069808882501],[-95.4008918342339,40.0070741093004],[-95.4003644700971,40.0071138193389],[-95.3996212768807,40.0069391553557],[-95.3991495147401,40.0067977283613],[-95.3986914915949,40.006576067353],[-95.3986771905904,40.0065691463528],[-95.3984259985108,40.0064475813482],[-95.3977180392726,40.0059698613134],[-95.39704687406,40.0056450213012],[-95.3968773060061,40.0055627452981],[-95.3968075129841,40.0055288802969],[-95.3966186969242,40.0054372622934],[-95.3961245717838,40.0053553843101],[-95.3959048417228,40.0053324703198],[-95.395797815693,40.0053213083245],[-95.3954865286046,40.005269725335],[-95.3953572635694,40.0052632373418],[-95.3949532304676,40.0053231023761],[-95.3941147842556,40.0054389724461],[-95.3938356401851,40.0054775474694],[-95.3933742160693,40.0055504095093],[-95.3930294559935,40.0057086215561],[-95.3926671859103,40.0058408885997],[-95.392547639884,40.005895747616],[-95.3924843748695,40.0059188426235],[-95.3922542608194,40.0060287376555],[-95.3917838097217,40.0063010577285],[-95.391640065692,40.006384986751],[-95.3902467954035,40.0071984709684],[-95.390244169403,40.0071999909688],[-95.3897763373059,40.0074707730414],[-95.3895804522676,40.0076064470755],[-95.3893845662292,40.0077421221096],[-95.3890607681902,40.0082036362045],[-95.388962498171,40.0082716992216],[-95.388675185137,40.008687630307],[-95.3884294501281,40.0092387534118],[-95.3882927371233,40.0095474254705],[-95.3882617721222,40.0096168714837],[-95.3882612031222,40.0096181504839],[-95.3882175661206,40.0097160145026],[-95.3880230050981,40.0100026595611],[-95.3878436270916,40.0104049436376],[-95.3878074270903,40.0104861266531],[-95.3877265490892,40.0106850236904],[-95.3876650610869,40.0108229217167],[-95.387626489095,40.0110016807482],[-95.3875642520934,40.0111479817758],[-95.3875634641016,40.0112292657892],[-95.3875607361298,40.0115104908352],[-95.387553852299,40.0131717281065],[-95.387539366349,40.0136952291928],[-95.3875189804194,40.0144319283142],[-95.3875356634395,40.0145845133381],[-95.3875417684469,40.0146403543468],[-95.3875483204661,40.014809947374],[-95.3875588944971,40.015083640418],[-95.387568700509,40.0151733264321],[-95.3875763915183,40.0152436704431],[-95.3876346155887,40.0157761885264],[-95.3875529636019,40.0161169525869],[-95.3874214896233,40.0166656286844],[-95.3871149096199,40.0174280208274],[-95.3869646176053,40.017676102877],[-95.3868894176045,40.0178631029121],[-95.3867597555919,40.0180771299548],[-95.386751440591,40.0180908549576],[-95.386233474553,40.019064945148],[-95.3859873495305,40.0194852542315],[-95.3857042725047,40.0199686603276],[-95.3854419124807,40.0204166844166],[-95.3853821664763,40.0205290344385],[-95.3851423774548,40.0209420495205],[-95.3850968034506,40.021019873536],[-95.3849398394295,40.0212218945785],[-95.3849082234257,40.0212669495877],[-95.3848919224237,40.0212901835925],[-95.3846681894033,40.0216722246684],[-95.3845875473936,40.0217871796921],[-95.384575479407,40.0219482137191],[-95.3844909204018,40.0221171817518],[-95.3844099603916,40.0222276087747],[-95.3843847794194,40.022563633831],[-95.3843797074395,40.0227718108653],[-95.3843633894596,40.023009569905],[-95.3842884534862,40.0234617939834],[-95.3842880184867,40.0234681129844],[-95.3842706924938,40.0235810830039],[-95.3842439045046,40.023755747034],[-95.3841968545213,40.0240396760832],[-95.3840562375289,40.0244789161634],[-95.3840112185268,40.0245746691817],[-95.3836890725008,40.0251578062964],[-95.3836231164976,40.0252980883233],[-95.3835021244918,40.0255554003726],[-95.3834264424892,40.0257267434052],[-95.383208046469,40.0260976214789],[-95.3830891554483,40.0262047425036],[-95.3830431044409,40.0262517565141],[-95.3827566793945,40.0265441745792],[-95.3825110733547,40.0267949166351],[-95.3824389183421,40.02685992765],[-95.382275191309,40.0269634216769],[-95.3821736452946,40.0270862777031],[-95.3820838092947,40.0273207027468],[-95.3818938102541,40.0274186457743],[-95.3816352561987,40.0275519278118],[-95.3814442261586,40.0276587368408],[-95.3813415121371,40.0277161668565],[-95.381170565095,40.0277502658724],[-95.3809996170528,40.0277843648884],[-95.3805876239435,40.0277915239147],[-95.3799687727889,40.0278959659694],[-95.3797152777182,40.0278675689801]]]},"properties":{"OBJECTID":210,"LARID":"LAR0210","LARName":"Iowa LAR","GISAcres":20728.05427413,"Shape__Area":0.0051859285413229372,"Shape__Length":0.47606493709517711}}]}